start=new Date('2023-01-15T00:00:00.000Z').valueOf();
sats=[{"GP_ID":"223000467","OBJECT_TYPE":"PAYLOAD","COUNTRY_CODE":"US","CENTER_NAME":"EARTH","MEAN_MOTION_DOT":"-0.00008721","OBJECT_NAME":"STARLINK-1730","APOAPSIS":"548.318","REF_FRAME":"TEME","ARG_OF_PERICENTER":"56.7887","BSTAR":"-0.00056748000000","RA_OF_ASC_NODE":"280.3766","EPOCH":"2023-01-14T10:07:30.104544","ELEMENT_SET_NO":"999","OBJECT_ID":"2020-070AH","FILE":"3744812","PERIAPSIS":"546.181","REV_AT_EPOCH":"12642","LAUNCH_DATE":"2020-10-06","NORAD_CAT_ID":"46563","MEAN_ELEMENT_THEORY":"SGP4","DECAY_DATE":null,"MEAN_MOTION":"15.06388152","PERIOD":"95.593","TLE_LINE2":"2 46563  53.0515 280.3766 0001543  56.7887 303.3250 15.06388152126421","MEAN_ANOMALY":"303.3250","CLASSIFICATION_TYPE":"U","TLE_LINE1":"1 46563U 20070AH  23014.42187621 -.00008721  00000-0 -56748-3 0  9997","MEAN_MOTION_DDOT":"0.0000000000000","ECCENTRICITY":"0.00015430","TIME_SYSTEM":"UTC","EPHEMERIS_TYPE":"0","RCS_SIZE":"LARGE","SEMIMAJOR_AXIS":"6925.385","SITE":"AFETR","INCLINATION":"53.0515"},{"SITE":"AFETR","INCLINATION":"53.0556","RCS_SIZE":"LARGE","SEMIMAJOR_AXIS":"6925.329","MEAN_MOTION_DDOT":"0.0000000000000","ECCENTRICITY":"0.00011290","EPHEMERIS_TYPE":"0","TIME_SYSTEM":"UTC","TLE_LINE1":"1 46564U 20070AJ  23014.46980765  .00000623  00000-0  60726-4 0  9995","CLASSIFICATION_TYPE":"U","TLE_LINE2":"2 46564  53.0556 280.1526 0001129  92.7703 267.3416 15.06406241126430","MEAN_ANOMALY":"267.3416","PERIOD":"95.592","MEAN_ELEMENT_THEORY":"SGP4","LAUNCH_DATE":"2020-10-06","NORAD_CAT_ID":"46564","REV_AT_EPOCH":"12643","PERIAPSIS":"546.413","DECAY_DATE":null,"MEAN_MOTION":"15.06406241","FILE":"3744512","OBJECT_ID":"2020-070AJ","ELEMENT_SET_NO":"999","EPOCH":"2023-01-14T11:16:31.380960","RA_OF_ASC_NODE":"280.1526","BSTAR":"0.00006072600000","APOAPSIS":"547.976","ARG_OF_PERICENTER":"92.7703","REF_FRAME":"TEME","MEAN_MOTION_DOT":"0.00000623","OBJECT_NAME":"STARLINK-1733","CENTER_NAME":"EARTH","GP_ID":"222993768","OBJECT_TYPE":"PAYLOAD","COUNTRY_CODE":"US"},{"DECAY_DATE":null,"MEAN_MOTION":"15.06378599","LAUNCH_DATE":"2020-10-06","MEAN_ELEMENT_THEORY":"SGP4","NORAD_CAT_ID":"46565","REV_AT_EPOCH":"12619","PERIAPSIS":"546.418","PERIOD":"95.593","TLE_LINE2":"2 46565  53.0513 277.8796 0001244 100.5129 259.6000 15.06378599126194","MEAN_ANOMALY":"259.6000","CLASSIFICATION_TYPE":"U","TLE_LINE1":"1 46565U 20070AK  23014.97846735 -.00002507  00000-0 -14957-3 0  9999","EPHEMERIS_TYPE":"0","TIME_SYSTEM":"UTC","MEAN_MOTION_DDOT":"0.0000000000000","ECCENTRICITY":"0.00012440","SEMIMAJOR_AXIS":"6925.414","RCS_SIZE":"LARGE","INCLINATION":"53.0513","SITE":"AFETR","COUNTRY_CODE":"US","OBJECT_TYPE":"PAYLOAD","GP_ID":"223027191","CENTER_NAME":"EARTH","OBJECT_NAME":"STARLINK-1735","MEAN_MOTION_DOT":"-0.00002507","ARG_OF_PERICENTER":"100.5129","REF_FRAME":"TEME","APOAPSIS":"548.141","RA_OF_ASC_NODE":"277.8796","BSTAR":"-0.00014957000000","EPOCH":"2023-01-14T23:28:59.579040","ELEMENT_SET_NO":"999","FILE":"3745204","OBJECT_ID":"2020-070AK"},{"MEAN_MOTION_DOT":"0.00031960","OBJECT_NAME":"STARLINK-1740","GP_ID":"223026846","OBJECT_TYPE":"PAYLOAD","COUNTRY_CODE":"US","CENTER_NAME":"EARTH","EPOCH":"2023-01-14T19:56:41.957952","ELEMENT_SET_NO":"999","OBJECT_ID":"2020-070AL","FILE":"3745204","APOAPSIS":"548.298","REF_FRAME":"TEME","ARG_OF_PERICENTER":"125.4264","BSTAR":"0.00215500000000","RA_OF_ASC_NODE":"278.5405","PERIOD":"95.592","MEAN_ANOMALY":"234.6870","TLE_LINE2":"2 46566  53.0506 278.5405 0001548 125.4264 234.6870 15.06395957126156","REV_AT_EPOCH":"12615","PERIAPSIS":"546.154","MEAN_ELEMENT_THEORY":"SGP4","LAUNCH_DATE":"2020-10-06","NORAD_CAT_ID":"46566","DECAY_DATE":null,"MEAN_MOTION":"15.06395957","RCS_SIZE":"LARGE","SEMIMAJOR_AXIS":"6925.361","SITE":"AFETR","INCLINATION":"53.0506","CLASSIFICATION_TYPE":"U","TLE_LINE1":"1 46566U 20070AL  23014.83104118  .00031960  00000-0  21550-2 0  9996","MEAN_MOTION_DDOT":"0.0000000000000","ECCENTRICITY":"0.00015480","TIME_SYSTEM":"UTC","EPHEMERIS_TYPE":"0"},{"APOAPSIS":"547.905","ARG_OF_PERICENTER":"74.0858","REF_FRAME":"TEME","RA_OF_ASC_NODE":"280.1978","BSTAR":"0.00046680000000","ELEMENT_SET_NO":"999","EPOCH":"2023-01-14T11:05:55.101984","FILE":"3744816","OBJECT_ID":"2020-070AM","GP_ID":"223000533","COUNTRY_CODE":"US","OBJECT_TYPE":"PAYLOAD","CENTER_NAME":"EARTH","MEAN_MOTION_DOT":"0.00006678","OBJECT_NAME":"STARLINK-1741","TLE_LINE1":"1 46567U 20070AM  23014.46244331  .00006678  00000-0  46680-3 0  9998","CLASSIFICATION_TYPE":"U","MEAN_MOTION_DDOT":"0.0000000000000","ECCENTRICITY":"0.00010000","EPHEMERIS_TYPE":"0","TIME_SYSTEM":"UTC","RCS_SIZE":"LARGE","SEMIMAJOR_AXIS":"6925.348","SITE":"AFETR","INCLINATION":"53.0546","LAUNCH_DATE":"2020-10-06","NORAD_CAT_ID":"46567","MEAN_ELEMENT_THEORY":"SGP4","PERIAPSIS":"546.520","REV_AT_EPOCH":"12642","DECAY_DATE":null,"MEAN_MOTION":"15.06400264","PERIOD":"95.592","TLE_LINE2":"2 46567  53.0546 280.1978 0001000  74.0858 286.0241 15.06400264126427","MEAN_ANOMALY":"286.0241"},{"FILE":"3745205","OBJECT_ID":"2020-070AP","ELEMENT_SET_NO":"999","EPOCH":"2023-01-15T00:11:28.601952","RA_OF_ASC_NODE":"277.7497","BSTAR":"0.00093794000000","APOAPSIS":"549.195","ARG_OF_PERICENTER":"92.7391","REF_FRAME":"TEME","MEAN_MOTION_DOT":"0.00013721","OBJECT_NAME":"STARLINK-1747","CENTER_NAME":"EARTH","GP_ID":"223026871","COUNTRY_CODE":"US","OBJECT_TYPE":"PAYLOAD","SITE":"AFETR","INCLINATION":"53.0494","RCS_SIZE":"LARGE","SEMIMAJOR_AXIS":"6925.317","MEAN_MOTION_DDOT":"0.0000000000000","ECCENTRICITY":"0.00029070","EPHEMERIS_TYPE":"0","TIME_SYSTEM":"UTC","CLASSIFICATION_TYPE":"U","TLE_LINE1":"1 46569U 20070AP  23015.00796993  .00013721  00000-0  93794-3 0  9992","MEAN_ANOMALY":"267.3930","TLE_LINE2":"2 46569  53.0494 277.7497 0002907  92.7391 267.3930 15.06410356126201","PERIOD":"95.591","LAUNCH_DATE":"2020-10-06","MEAN_ELEMENT_THEORY":"SGP4","NORAD_CAT_ID":"46569","PERIAPSIS":"545.169","REV_AT_EPOCH":"12620","DECAY_DATE":null,"MEAN_MOTION":"15.06410356"},{"APOAPSIS":"517.186","ARG_OF_PERICENTER":"87.1417","REF_FRAME":"TEME","RA_OF_ASC_NODE":"275.2438","BSTAR":"0.00306010000000","ELEMENT_SET_NO":"999","EPOCH":"2023-01-14T01:49:01.002720","FILE":"3744337","OBJECT_ID":"2020-070AQ","GP_ID":"222990879","OBJECT_TYPE":"PAYLOAD","COUNTRY_CODE":"US","CENTER_NAME":"EARTH","MEAN_MOTION_DOT":"0.00061242","OBJECT_NAME":"STARLINK-1748","TLE_LINE1":"1 46570U 20070AQ  23014.07570605  .00061242  00000-0  30601-2 0  9998","CLASSIFICATION_TYPE":"U","ECCENTRICITY":"0.00028650","MEAN_MOTION_DDOT":"0.0000000000000","EPHEMERIS_TYPE":"0","TIME_SYSTEM":"UTC","RCS_SIZE":"LARGE","SEMIMAJOR_AXIS":"6893.346","SITE":"AFETR","INCLINATION":"53.0563","LAUNCH_DATE":"2020-10-06","NORAD_CAT_ID":"46570","MEAN_ELEMENT_THEORY":"SGP4","PERIAPSIS":"513.236","REV_AT_EPOCH":"12646","DECAY_DATE":null,"MEAN_MOTION":"15.16902445","PERIOD":"94.930","MEAN_ANOMALY":"272.9905","TLE_LINE2":"2 46570  53.0563 275.2438 0002865  87.1417 272.9905 15.16902445126466"},{"RCS_SIZE":"LARGE","SEMIMAJOR_AXIS":"6925.384","SITE":"AFETR","INCLINATION":"53.0571","TLE_LINE1":"1 46572U 20070AS  23014.78033209  .00000872  00000-0  77441-4 0  9999","CLASSIFICATION_TYPE":"U","MEAN_MOTION_DDOT":"0.0000000000000","ECCENTRICITY":"0.00017160","EPHEMERIS_TYPE":"0","TIME_SYSTEM":"UTC","PERIOD":"95.593","TLE_LINE2":"2 46572  53.0571 298.7492 0001716  69.6119 290.5054 15.06388490126205","MEAN_ANOMALY":"290.5054","NORAD_CAT_ID":"46572","LAUNCH_DATE":"2020-10-06","MEAN_ELEMENT_THEORY":"SGP4","PERIAPSIS":"546.060","REV_AT_EPOCH":"12620","MEAN_MOTION":"15.06388490","DECAY_DATE":null,"EPOCH":"2023-01-14T18:43:40.692576","ELEMENT_SET_NO":"999","FILE":"3745197","OBJECT_ID":"2020-070AS","APOAPSIS":"548.437","ARG_OF_PERICENTER":"69.6119","REF_FRAME":"TEME","RA_OF_ASC_NODE":"298.7492","BSTAR":"0.00007744100000","MEAN_MOTION_DOT":"0.00000872","OBJECT_NAME":"STARLINK-1531","GP_ID":"223026733","OBJECT_TYPE":"PAYLOAD","COUNTRY_CODE":"US","CENTER_NAME":"EARTH"},{"PERIOD":"92.763","TLE_LINE2":"2 46573  53.0551 274.7823 0002956 116.4585 243.6728 15.52337408126505","MEAN_ANOMALY":"243.6728","MEAN_MOTION":"15.52337408","DECAY_DATE":null,"LAUNCH_DATE":"2020-10-06","NORAD_CAT_ID":"46573","MEAN_ELEMENT_THEORY":"SGP4","PERIAPSIS":"407.899","REV_AT_EPOCH":"12650","SEMIMAJOR_AXIS":"6788.041","RCS_SIZE":"LARGE","INCLINATION":"53.0551","SITE":"AFETR","TLE_LINE1":"1 46573U 20070AT  23014.43075422  .00080488  00000-0  12933-2 0  9999","CLASSIFICATION_TYPE":"U","EPHEMERIS_TYPE":"0","TIME_SYSTEM":"UTC","ECCENTRICITY":"0.00029560","MEAN_MOTION_DDOT":"0.0000000000000","OBJECT_NAME":"STARLINK-1650","MEAN_MOTION_DOT":"0.00080488","COUNTRY_CODE":"US","OBJECT_TYPE":"PAYLOAD","GP_ID":"223000065","CENTER_NAME":"EARTH","ELEMENT_SET_NO":"999","EPOCH":"2023-01-14T10:20:17.164608","FILE":"3744793","OBJECT_ID":"2020-070AT","ARG_OF_PERICENTER":"116.4585","REF_FRAME":"TEME","APOAPSIS":"411.912","RA_OF_ASC_NODE":"274.7823","BSTAR":"0.00129330000000"},{"PERIAPSIS":"546.370","REV_AT_EPOCH":"12636","LAUNCH_DATE":"2020-10-06","MEAN_ELEMENT_THEORY":"SGP4","NORAD_CAT_ID":"46574","DECAY_DATE":null,"MEAN_MOTION":"15.06399630","PERIOD":"95.592","TLE_LINE2":"2 46574  53.0519 284.8261 0001219  91.4058 268.7070 15.06399630126362","MEAN_ANOMALY":"268.7070","CLASSIFICATION_TYPE":"U","TLE_LINE1":"1 46574U 20070AU  23014.54491832  .00003734  00000-0  26945-3 0  9997","MEAN_MOTION_DDOT":"0.0000000000000","ECCENTRICITY":"0.00012190","TIME_SYSTEM":"UTC","EPHEMERIS_TYPE":"0","RCS_SIZE":"LARGE","SEMIMAJOR_AXIS":"6925.350","SITE":"AFETR","INCLINATION":"53.0519","GP_ID":"223000229","COUNTRY_CODE":"US","OBJECT_TYPE":"PAYLOAD","CENTER_NAME":"EARTH","MEAN_MOTION_DOT":"0.00003734","OBJECT_NAME":"STARLINK-1660","APOAPSIS":"548.059","REF_FRAME":"TEME","ARG_OF_PERICENTER":"91.4058","BSTAR":"0.00026945000000","RA_OF_ASC_NODE":"284.8261","EPOCH":"2023-01-14T13:04:40.942848","ELEMENT_SET_NO":"999","OBJECT_ID":"2020-070AU","FILE":"3744793"}];
